ONEWEB-0258             
1 48976U 21060K   26158.45273565 -.00000033  00000+0 -11948-3 0  9995
2 48976  87.9105 230.7162 0002044 100.4471 259.6890 13.16593806238312
ONEWEB-0259             
1 48977U 21060L   26158.44640686 -.00000001  00000+0 -35329-4 0  9992
2 48977  87.9104 230.7162 0002008 103.5489 256.5866 13.16594571238347
ONEWEB-0260             
1 48978U 21060M   26158.43768899  .00000010  00000+0 -64691-5 0  9993
2 48978  87.9099 230.7201 0002092  87.9640 272.1731 13.16593755238328
ONEWEB-0261             
1 48979U 21060N   26158.48359964  .00000153  00000+0  36715-3 0  9999
2 48979  87.9097 230.7109 0001727  95.7807 264.3521 13.16595410238386
ONEWEB-0262             
1 48980U 21060P   26158.23582932 -.00000025  00000+0 -99623-4 0  9995
2 48980  87.9102 230.7460 0001973 107.0043 253.1304 13.16594915238314
ONEWEB-0263             
1 48981U 21060Q   26158.49548529  .00000152  00000+0  36407-3 0  9997
2 48981  87.9103 230.7058 0001708  99.8441 260.2883 13.16594719238318
ONEWEB-0264             
1 48982U 21060R   26158.45670069 -.00000023  00000+0 -92738-4 0  9998
2 48982  87.9097 230.7165 0001938  93.3893 266.7460 13.16594708238315
ONEWEB-0266             
1 48984U 21060T   26158.47806744  .00000057  00000+0  11531-3 0  9999
2 48984  87.9105 230.7029 0002146 100.3249 259.8124 13.16593766238304
ONEWEB-0267             
1 48985U 21060U   26158.48915414  .00000111  00000+0  25702-3 0  9992
2 48985  87.9103 230.6971 0001842  96.5580 263.5760 13.16594074238316
ONEWEB-0268             
1 48986U 21060V   26158.22949083  .00000058  00000+0  11692-3 0  9997
2 48986  87.9101 230.7582 0002104  95.5820 264.5551 13.16596263238548
ONEWEB-0269             
1 48987U 21060W   26158.43848762  .00000052  00000+0  10295-3 0  9995
2 48987  87.9093 230.7202 0002209  95.9265 264.2117 13.16594750238343
ONEWEB-0270             
1 48988U 21060X   26158.45590462  .00000045  00000+0  84250-4 0  9994
2 48988  87.9097 230.7147 0001726 104.9427 255.1895 13.16595137238386
ONEWEB-0271             
1 48989U 21060Y   26158.44323851  .00000019  00000+0  15340-4 0  9995
2 48989  87.9100 230.7076 0001733  98.8215 261.3112 13.16594270238385
ONEWEB-0272             
1 48990U 21060Z   26158.46538527 -.00000006  00000+0 -48776-4 0  9994
2 48990  87.9104 230.7152 0001941  90.4406 269.6947 13.16596591238337
ONEWEB-0273             
1 48991U 21060AA  26158.48757103  .00000053  00000+0  10384-3 0  9993
2 48991  87.9106 230.7099 0001886 100.8356 259.2987 13.16594555238313
ONEWEB-0274             
1 48992U 21060AB  26158.43689528  .00000050  00000+0  97305-4 0  9990
2 48992  87.9097 230.7234 0002097  90.1354 270.0017 13.16593537238345
