[{"OBJECT_NAME":"ONEWEB-0258","OBJECT_ID":"2021-060K","EPOCH":"2026-06-07T10:51:56.360160","MEAN_MOTION":13.16593806,"ECCENTRICITY":0.0002044,"INCLINATION":87.9105,"RA_OF_ASC_NODE":230.7162,"ARG_OF_PERICENTER":100.4471,"MEAN_ANOMALY":259.689,"EPHEMERIS_TYPE":0,"CLASSIFICATION_TYPE":"U","NORAD_CAT_ID":48976,"ELEMENT_SET_NO":999,"REV_AT_EPOCH":23831,"BSTAR":-0.00011948,"MEAN_MOTION_DOT":-3.3e-07,"MEAN_MOTION_DDOT":0.0},{"OBJECT_NAME":"ONEWEB-0259","OBJECT_ID":"2021-060L","EPOCH":"2026-06-07T10:42:49.552704","MEAN_MOTION":13.16594571,"ECCENTRICITY":0.0002008,"INCLINATION":87.9104,"RA_OF_ASC_NODE":230.7162,"ARG_OF_PERICENTER":103.5489,"MEAN_ANOMALY":256.5866,"EPHEMERIS_TYPE":0,"CLASSIFICATION_TYPE":"U","NORAD_CAT_ID":48977,"ELEMENT_SET_NO":999,"REV_AT_EPOCH":23834,"BSTAR":-3.5329e-05,"MEAN_MOTION_DOT":-1e-08,"MEAN_MOTION_DDOT":0.0},{"OBJECT_NAME":"ONEWEB-0260","OBJECT_ID":"2021-060M","EPOCH":"2026-06-07T10:30:16.328736","MEAN_MOTION":13.16593755,"ECCENTRICITY":0.0002092,"INCLINATION":87.9099,"RA_OF_ASC_NODE":230.7201,"ARG_OF_PERICENTER":87.964,"MEAN_ANOMALY":272.1731,"EPHEMERIS_TYPE":0,"CLASSIFICATION_TYPE":"U","NORAD_CAT_ID":48978,"ELEMENT_SET_NO":999,"REV_AT_EPOCH":23832,"BSTAR":-6.4691000000000005e-06,"MEAN_MOTION_DOT":1e-07,"MEAN_MOTION_DDOT":0.0},{"OBJECT_NAME":"ONEWEB-0261","OBJECT_ID":"2021-060N","EPOCH":"2026-06-07T11:36:23.008896","MEAN_MOTION":13.1659541,"ECCENTRICITY":0.0001727,"INCLINATION":87.9097,"RA_OF_ASC_NODE":230.7109,"ARG_OF_PERICENTER":95.7807,"MEAN_ANOMALY":264.3521,"EPHEMERIS_TYPE":0,"CLASSIFICATION_TYPE":"U","NORAD_CAT_ID":48979,"ELEMENT_SET_NO":999,"REV_AT_EPOCH":23838,"BSTAR":0.00036715,"MEAN_MOTION_DOT":1.53e-06,"MEAN_MOTION_DDOT":0.0},{"OBJECT_NAME":"ONEWEB-0262","OBJECT_ID":"2021-060P","EPOCH":"2026-06-07T05:39:35.653248","MEAN_MOTION":13.16594915,"ECCENTRICITY":0.0001973,"INCLINATION":87.9102,"RA_OF_ASC_NODE":230.746,"ARG_OF_PERICENTER":107.0043,"MEAN_ANOMALY":253.1304,"EPHEMERIS_TYPE":0,"CLASSIFICATION_TYPE":"U","NORAD_CAT_ID":48980,"ELEMENT_SET_NO":999,"REV_AT_EPOCH":23831,"BSTAR":-9.9623e-05,"MEAN_MOTION_DOT":-2.5e-07,"MEAN_MOTION_DDOT":0.0},{"OBJECT_NAME":"ONEWEB-0263","OBJECT_ID":"2021-060Q","EPOCH":"2026-06-07T11:53:29.929056","MEAN_MOTION":13.16594719,"ECCENTRICITY":0.0001708,"INCLINATION":87.9103,"RA_OF_ASC_NODE":230.7058,"ARG_OF_PERICENTER":99.8441,"MEAN_ANOMALY":260.2883,"EPHEMERIS_TYPE":0,"CLASSIFICATION_TYPE":"U","NORAD_CAT_ID":48981,"ELEMENT_SET_NO":999,"REV_AT_EPOCH":23831,"BSTAR":0.00036407000000000003,"MEAN_MOTION_DOT":1.52e-06,"MEAN_MOTION_DDOT":0.0},{"OBJECT_NAME":"ONEWEB-0264","OBJECT_ID":"2021-060R","EPOCH":"2026-06-07T10:57:38.939616","MEAN_MOTION":13.16594708,"ECCENTRICITY":0.0001938,"INCLINATION":87.9097,"RA_OF_ASC_NODE":230.7165,"ARG_OF_PERICENTER":93.3893,"MEAN_ANOMALY":266.746,"EPHEMERIS_TYPE":0,"CLASSIFICATION_TYPE":"U","NORAD_CAT_ID":48982,"ELEMENT_SET_NO":999,"REV_AT_EPOCH":23831,"BSTAR":-9.2738e-05,"MEAN_MOTION_DOT":-2.3e-07,"MEAN_MOTION_DDOT":0.0},{"OBJECT_NAME":"ONEWEB-0266","OBJECT_ID":"2021-060T","EPOCH":"2026-06-07T11:28:25.026816","MEAN_MOTION":13.16593766,"ECCENTRICITY":0.0002146,"INCLINATION":87.9105,"RA_OF_ASC_NODE":230.7029,"ARG_OF_PERICENTER":100.3249,"MEAN_ANOMALY":259.8124,"EPHEMERIS_TYPE":0,"CLASSIFICATION_TYPE":"U","NORAD_CAT_ID":48984,"ELEMENT_SET_NO":999,"REV_AT_EPOCH":23830,"BSTAR":0.00011530999999999999,"MEAN_MOTION_DOT":5.7e-07,"MEAN_MOTION_DDOT":0.0},{"OBJECT_NAME":"ONEWEB-0267","OBJECT_ID":"2021-060U","EPOCH":"2026-06-07T11:44:22.917696","MEAN_MOTION":13.16594074,"ECCENTRICITY":0.0001842,"INCLINATION":87.9103,"RA_OF_ASC_NODE":230.6971,"ARG_OF_PERICENTER":96.558,"MEAN_ANOMALY":263.576,"EPHEMERIS_TYPE":0,"CLASSIFICATION_TYPE":"U","NORAD_CAT_ID":48985,"ELEMENT_SET_NO":999,"REV_AT_EPOCH":23831,"BSTAR":0.00025702000000000006,"MEAN_MOTION_DOT":1.11e-06,"MEAN_MOTION_DDOT":0.0},{"OBJECT_NAME":"ONEWEB-0268","OBJECT_ID":"2021-060V","EPOCH":"2026-06-07T05:30:28.007712","MEAN_MOTION":13.16596263,"ECCENTRICITY":0.0002104,"INCLINATION":87.9101,"RA_OF_ASC_NODE":230.7582,"ARG_OF_PERICENTER":95.582,"MEAN_ANOMALY":264.5551,"EPHEMERIS_TYPE":0,"CLASSIFICATION_TYPE":"U","NORAD_CAT_ID":48986,"ELEMENT_SET_NO":999,"REV_AT_EPOCH":23854,"BSTAR":0.00011692,"MEAN_MOTION_DOT":5.8e-07,"MEAN_MOTION_DDOT":0.0},{"OBJECT_NAME":"ONEWEB-0269","OBJECT_ID":"2021-060W","EPOCH":"2026-06-07T10:31:25.330368","MEAN_MOTION":13.1659475,"ECCENTRICITY":0.0002209,"INCLINATION":87.9093,"RA_OF_ASC_NODE":230.7202,"ARG_OF_PERICENTER":95.9265,"MEAN_ANOMALY":264.2117,"EPHEMERIS_TYPE":0,"CLASSIFICATION_TYPE":"U","NORAD_CAT_ID":48987,"ELEMENT_SET_NO":999,"REV_AT_EPOCH":23834,"BSTAR":0.00010295000000000001,"MEAN_MOTION_DOT":5.2e-07,"MEAN_MOTION_DDOT":0.0},{"OBJECT_NAME":"ONEWEB-0270","OBJECT_ID":"2021-060X","EPOCH":"2026-06-07T10:56:30.159168","MEAN_MOTION":13.16595137,"ECCENTRICITY":0.0001726,"INCLINATION":87.9097,"RA_OF_ASC_NODE":230.7147,"ARG_OF_PERICENTER":104.9427,"MEAN_ANOMALY":255.1895,"EPHEMERIS_TYPE":0,"CLASSIFICATION_TYPE":"U","NORAD_CAT_ID":48988,"ELEMENT_SET_NO":999,"REV_AT_EPOCH":23838,"BSTAR":8.425e-05,"MEAN_MOTION_DOT":4.5e-07,"MEAN_MOTION_DDOT":0.0},{"OBJECT_NAME":"ONEWEB-0271","OBJECT_ID":"2021-060Y","EPOCH":"2026-06-07T10:38:15.807264","MEAN_MOTION":13.1659427,"ECCENTRICITY":0.0001733,"INCLINATION":87.91,"RA_OF_ASC_NODE":230.7076,"ARG_OF_PERICENTER":98.8215,"MEAN_ANOMALY":261.3112,"EPHEMERIS_TYPE":0,"CLASSIFICATION_TYPE":"U","NORAD_CAT_ID":48989,"ELEMENT_SET_NO":999,"REV_AT_EPOCH":23838,"BSTAR":1.5340000000000002e-05,"MEAN_MOTION_DOT":1.9e-07,"MEAN_MOTION_DDOT":0.0},{"OBJECT_NAME":"ONEWEB-0272","OBJECT_ID":"2021-060Z","EPOCH":"2026-06-07T11:10:09.287328","MEAN_MOTION":13.16596591,"ECCENTRICITY":0.0001941,"INCLINATION":87.9104,"RA_OF_ASC_NODE":230.7152,"ARG_OF_PERICENTER":90.4406,"MEAN_ANOMALY":269.6947,"EPHEMERIS_TYPE":0,"CLASSIFICATION_TYPE":"U","NORAD_CAT_ID":48990,"ELEMENT_SET_NO":999,"REV_AT_EPOCH":23833,"BSTAR":-4.8776e-05,"MEAN_MOTION_DOT":-6e-08,"MEAN_MOTION_DDOT":0.0},{"OBJECT_NAME":"ONEWEB-0273","OBJECT_ID":"2021-060AA","EPOCH":"2026-06-07T11:42:06.136992","MEAN_MOTION":13.16594555,"ECCENTRICITY":0.0001886,"INCLINATION":87.9106,"RA_OF_ASC_NODE":230.7099,"ARG_OF_PERICENTER":100.8356,"MEAN_ANOMALY":259.2987,"EPHEMERIS_TYPE":0,"CLASSIFICATION_TYPE":"U","NORAD_CAT_ID":48991,"ELEMENT_SET_NO":999,"REV_AT_EPOCH":23831,"BSTAR":0.00010384000000000001,"MEAN_MOTION_DOT":5.3e-07,"MEAN_MOTION_DDOT":0.0},{"OBJECT_NAME":"ONEWEB-0274","OBJECT_ID":"2021-060AB","EPOCH":"2026-06-07T10:29:07.752192","MEAN_MOTION":13.16593537,"ECCENTRICITY":0.0002097,"INCLINATION":87.9097,"RA_OF_ASC_NODE":230.7234,"ARG_OF_PERICENTER":90.1354,"MEAN_ANOMALY":270.0017,"EPHEMERIS_TYPE":0,"CLASSIFICATION_TYPE":"U","NORAD_CAT_ID":48992,"ELEMENT_SET_NO":999,"REV_AT_EPOCH":23834,"BSTAR":9.7305e-05,"MEAN_MOTION_DOT":5e-07,"MEAN_MOTION_DDOT":0.0}]